{
    "links": {
        "self": "http://www.neowsapp.com/rest/v1/neo/3102688?api_key=iIulBulltgU6a56xZRHN4H3l9WmuAYTsLGpBGhQ2"
    },
    "id": "3102688",
    "neo_reference_id": "3102688",
    "name": "(2001 XH16)",
    "designation": "2001 XH16",
    "nasa_jpl_url": "http://ssd.jpl.nasa.gov/sbdb.cgi?sstr=3102688",
    "absolute_magnitude_h": 24.8,
    "estimated_diameter": {
        "kilometers": {
            "estimated_diameter_min": 0.0291443905,
            "estimated_diameter_max": 0.0651688382
        },
        "meters": {
            "estimated_diameter_min": 29.1443904535,
            "estimated_diameter_max": 65.1688382168
        },
        "miles": {
            "estimated_diameter_min": 0.018109479,
            "estimated_diameter_max": 0.0404940262
        },
        "feet": {
            "estimated_diameter_min": 95.6180819754,
            "estimated_diameter_max": 213.8085311752
        }
    },
    "is_potentially_hazardous_asteroid": false,
    "close_approach_data": [
        {
            "close_approach_date": "2001-12-02",
            "close_approach_date_full": "2001-Dec-02 17:58",
            "epoch_date_close_approach": 1007315880000,
            "relative_velocity": {
                "kilometers_per_second": "14.8814249787",
                "kilometers_per_hour": "53573.129923342",
                "miles_per_hour": "33288.2595348677"
            },
            "miss_distance": {
                "astronomical": "0.0212405405",
                "lunar": "8.2625702545",
                "kilometers": "3177539.616448735",
                "miles": "1974431.562053143"
            },
            "orbiting_body": "Earth"
        }
    ],
    "orbital_data": {
        "orbit_id": "10",
        "orbit_determination_date": "2017-04-06 09:15:44",
        "first_observation_date": "2001-12-09",
        "last_observation_date": "2001-12-20",
        "data_arc_in_days": 11,
        "observations_used": 12,
        "orbit_uncertainty": "9",
        "minimum_orbit_intersection": ".00541694",
        "jupiter_tisserand_invariant": "3.451",
        "epoch_osculation": "2452258.5",
        "eccentricity": ".6294153163143491",
        "semi_major_axis": "2.114057001737203",
        "inclination": "2.649869044389383",
        "ascending_node_longitude": "79.31354839931957",
        "orbital_period": "1122.725189280824",
        "perihelion_distance": ".7834371452822169",
        "perihelion_argument": "291.0917995514902",
        "aphelion_distance": "3.44467685819219",
        "perihelion_time": "2452206.650187017798",
        "mean_anomaly": "16.62555792976323",
        "mean_motion": ".3206483683069431",
        "equinox": "J2000",
        "orbit_class": {
            "orbit_class_type": "APO",
            "orbit_class_description": "Near-Earth asteroid orbits which cross the Earth’s orbit similar to that of 1862 Apollo",
            "orbit_class_range": "a (semi-major axis) > 1.0 AU; q (perihelion) < 1.017 AU"
        }
    },
    "is_sentry_object": false
}